[{"OBJECT_NAME":"BUFENG 1B","OBJECT_ID":"2019-032B","EPOCH":"2026-03-09T19:57:27.457920","MEAN_MOTION":15.25619535,"ECCENTRICITY":0.00242037,"INCLINATION":44.9701,"RA_OF_ASC_NODE":192.0248,"ARG_OF_PERICENTER":123.8847,"MEAN_ANOMALY":236.4342,"EPHEMERIS_TYPE":0,"CLASSIFICATION_TYPE":"U","NORAD_CAT_ID":44311,"ELEMENT_SET_NO":999,"REV_AT_EPOCH":37256,"BSTAR":0.00059375374,"MEAN_MOTION_DOT":0.00015236,"MEAN_MOTION_DDOT":0},{"OBJECT_NAME":"STARLINK-34882","OBJECT_ID":"2025-244X","EPOCH":"2026-03-09T17:02:34.265184","MEAN_MOTION":15.30195652,"ECCENTRICITY":0.00012103,"INCLINATION":53.1598,"RA_OF_ASC_NODE":229.7417,"ARG_OF_PERICENTER":56.6324,"MEAN_ANOMALY":303.4792,"EPHEMERIS_TYPE":0,"CLASSIFICATION_TYPE":"U","NORAD_CAT_ID":66227,"ELEMENT_SET_NO":999,"REV_AT_EPOCH":2166,"BSTAR":0.00094450525,"MEAN_MOTION_DOT":0.00027715,"MEAN_MOTION_DDOT":0}]
